[{"OBJECT_NAME":"FALCONSAT-10","OBJECT_ID":"2023-174AM","EPOCH":"2026-03-09T16:51:34.085376","MEAN_MOTION":15.26670596,"ECCENTRICITY":0.00089318,"INCLINATION":97.3865,"RA_OF_ASC_NODE":145.7938,"ARG_OF_PERICENTER":169.5942,"MEAN_ANOMALY":190.5483,"EPHEMERIS_TYPE":0,"CLASSIFICATION_TYPE":"U","NORAD_CAT_ID":58291,"ELEMENT_SET_NO":999,"REV_AT_EPOCH":12958,"BSTAR":0.00025968794,"MEAN_MOTION_DOT":6.748e-5,"MEAN_MOTION_DDOT":0},{"OBJECT_NAME":"STARLINK-34029","OBJECT_ID":"2025-092B","EPOCH":"2026-03-09T07:37:23.265696","MEAN_MOTION":15.27599019,"ECCENTRICITY":0.00018628,"INCLINATION":42.9979,"RA_OF_ASC_NODE":175.0003,"ARG_OF_PERICENTER":278.4208,"MEAN_ANOMALY":81.6432,"EPHEMERIS_TYPE":0,"CLASSIFICATION_TYPE":"U","NORAD_CAT_ID":63805,"ELEMENT_SET_NO":999,"REV_AT_EPOCH":4855,"BSTAR":0.0010564865,"MEAN_MOTION_DOT":0.00028942,"MEAN_MOTION_DDOT":0}]
